ONEWEB-0306             
1 49188U 21083C   23244.51575992  .00011336  00000+0  28690-1 0  9991
2 49188  87.9212 178.2508 0001762  76.5903 283.5425 13.18674527 95634
ONEWEB-0307             
1 49189U 21083D   23244.52244436 -.00000207  00000+0 -60173-3 0  9990
2 49189  87.9081 163.0881 0002083  77.2042 282.9320 13.13471888 97071
ONEWEB-0320             
1 49190U 21083E   23244.52212868  .00000242  00000+0  58177-3 0  9994
2 49190  87.9224 178.2681 0002112  76.7062 283.4306 13.18686211 95595
ONEWEB-0321             
1 49191U 21083F   23244.59082119  .00000138  00000+0  30781-3 0  9991
2 49191  87.9201 117.4545 0001954  89.6339 270.5018 13.20771075102242
ONEWEB-0322             
1 49192U 21083G   23244.51818436 -.00000224  00000+0 -64902-3 0  9993
2 49192  87.9085 163.0773 0002628  80.4819 279.6607 13.13469494 97062
ONEWEB-0324             
1 49193U 21083H   23244.58323119  .00000042  00000+0  72566-4 0  9992
2 49193  87.9223 178.2363 0001737  66.3075 293.8240 13.18687974 95628
ONEWEB-0325             
1 49194U 21083J   23244.51157129 -.00000625  00000+0 -16191-2 0  9991
2 49194  87.9398 178.1396 0002008  78.1686 281.9671 13.18685331 95629
ONEWEB-0326             
1 49195U 21083K   23244.52633891  .00000159  00000+0  37181-3 0  9991
2 49195  87.9241 178.2369 0001596  59.6930 300.4360 13.18687618 95616
